[
  {
    "OBJECT_NAME": "STARLINK-34701",
    "OBJECT_ID": "25158X",
    "EPOCH": "2025-11-11T06:52:39.342144",
    "MEAN_MOTION": 15.05660369,
    "ECCENTRICITY": 0.0002611,
    "INCLINATION": 97.6025,
    "RA_OF_ASC_NODE": 177.4397,
    "ARG_OF_PERICENTER": 87.4284,
    "MEAN_ANOMALY": 272.7242,
    "EPHEMERIS_TYPE": 0,
    "CLASSIFICATION_TYPE": "U",
    "NORAD_CAT_ID": 64953,
    "ELEMENT_SET_NO": 999,
    "REV_AT_EPOCH": 1754,
    "BSTAR": 0.00054479,
    "MEAN_MOTION_DOT": 7.811e-05,
    "MEAN_MOTION_DDOT": 0.0,
    "TLE_LINE1": "1 64953U 25158X   25315.28656646  .00007811  00000+0  54479-3 0  9995",
    "TLE_LINE2": "2 64953  97.6025 177.4397 0002611  87.4284 272.7242 15.05660369 17543",
    "COMMENT": "Grouped by shell and plane from TLE"
  },
  {
    "OBJECT_NAME": "STARLINK-34761",
    "OBJECT_ID": "25158Y",
    "EPOCH": "2025-11-11T04:57:00.403488",
    "MEAN_MOTION": 15.05661077,
    "ECCENTRICITY": 0.0002988,
    "INCLINATION": 97.602,
    "RA_OF_ASC_NODE": 177.2394,
    "ARG_OF_PERICENTER": 75.1279,
    "MEAN_ANOMALY": 285.0279,
    "EPHEMERIS_TYPE": 0,
    "CLASSIFICATION_TYPE": "U",
    "NORAD_CAT_ID": 64954,
    "ELEMENT_SET_NO": 999,
    "REV_AT_EPOCH": 1752,
    "BSTAR": 0.00053484,
    "MEAN_MOTION_DOT": 7.668e-05,
    "MEAN_MOTION_DDOT": 0.0,
    "TLE_LINE1": "1 64954U 25158Y   25315.20625467  .00007668  00000+0  53484-3 0  9990",
    "TLE_LINE2": "2 64954  97.6020 177.2394 0002988  75.1279 285.0279 15.05661077 17521",
    "COMMENT": "Grouped by shell and plane from TLE"
  },
  {
    "OBJECT_NAME": "STARLINK-34732",
    "OBJECT_ID": "25158Z",
    "EPOCH": "2025-11-11T04:09:09.671040",
    "MEAN_MOTION": 15.05656881,
    "ECCENTRICITY": 0.0002258,
    "INCLINATION": 97.6014,
    "RA_OF_ASC_NODE": 177.285,
    "ARG_OF_PERICENTER": 47.7012,
    "MEAN_ANOMALY": 312.4406,
    "EPHEMERIS_TYPE": 0,
    "CLASSIFICATION_TYPE": "U",
    "NORAD_CAT_ID": 64955,
    "ELEMENT_SET_NO": 999,
    "REV_AT_EPOCH": 1752,
    "BSTAR": 0.00065111,
    "MEAN_MOTION_DOT": 9.348e-05,
    "MEAN_MOTION_DDOT": 0.0,
    "TLE_LINE1": "1 64955U 25158Z   25315.17302860  .00009348  00000+0  65111-3 0  9993",
    "TLE_LINE2": "2 64955  97.6014 177.2850 0002258  47.7012 312.4406 15.05656881 17526",
    "COMMENT": "Grouped by shell and plane from TLE"
  },
  {
    "OBJECT_NAME": "STARLINK-35330",
    "OBJECT_ID": "25218A",
    "EPOCH": "2025-11-11T04:23:09.511872",
    "MEAN_MOTION": 15.05660983,
    "ECCENTRICITY": 0.0003179,
    "INCLINATION": 97.6022,
    "RA_OF_ASC_NODE": 176.0736,
    "ARG_OF_PERICENTER": 64.5975,
    "MEAN_ANOMALY": 295.558,
    "EPHEMERIS_TYPE": 0,
    "CLASSIFICATION_TYPE": "U",
    "NORAD_CAT_ID": 65791,
    "ELEMENT_SET_NO": 999,
    "REV_AT_EPOCH": 713,
    "BSTAR": 0.00067022,
    "MEAN_MOTION_DOT": 9.626e-05,
    "MEAN_MOTION_DDOT": 0.0,
    "TLE_LINE1": "1 65791U 25218A   25315.18274898  .00009626  00000+0  67022-3 0  9991",
    "TLE_LINE2": "2 65791  97.6022 176.0736 0003179  64.5975 295.5580 15.05660983  7130",
    "COMMENT": "Grouped by shell and plane from TLE"
  },
  {
    "OBJECT_NAME": "STARLINK-35373",
    "OBJECT_ID": "25218B",
    "EPOCH": "2025-11-11T08:00:03.000384",
    "MEAN_MOTION": 15.05671928,
    "ECCENTRICITY": 0.0002059,
    "INCLINATION": 97.6036,
    "RA_OF_ASC_NODE": 176.3033,
    "ARG_OF_PERICENTER": 94.6275,
    "MEAN_ANOMALY": 181.3942,
    "EPHEMERIS_TYPE": 0,
    "CLASSIFICATION_TYPE": "U",
    "NORAD_CAT_ID": 65792,
    "ELEMENT_SET_NO": 999,
    "REV_AT_EPOCH": 590,
    "BSTAR": 0.0,
    "MEAN_MOTION_DOT": -0.00019535,
    "MEAN_MOTION_DDOT": 0.0,
    "TLE_LINE1": "1 65792U 25218B   25315.33336806 -.00019535  00000+0 -13525-2 0  9997",
    "TLE_LINE2": "2 65792  97.6036 176.3033 0002059  94.6275 181.3942 15.05671928  5900",
    "COMMENT": "Grouped by shell and plane from TLE"
  },
  {
    "OBJECT_NAME": "STARLINK-35383",
    "OBJECT_ID": "25218C",
    "EPOCH": "2025-11-11T04:47:06.070848",
    "MEAN_MOTION": 15.05641344,
    "ECCENTRICITY": 0.0002596,
    "INCLINATION": 97.6004,
    "RA_OF_ASC_NODE": 176.2052,
    "ARG_OF_PERICENTER": 85.2767,
    "MEAN_ANOMALY": 274.8756,
    "EPHEMERIS_TYPE": 0,
    "CLASSIFICATION_TYPE": "U",
    "NORAD_CAT_ID": 65793,
    "ELEMENT_SET_NO": 999,
    "REV_AT_EPOCH": 714,
    "BSTAR": 0.00070199,
    "MEAN_MOTION_DOT": 0.00010081,
    "MEAN_MOTION_DDOT": 0.0,
    "TLE_LINE1": "1 65793U 25218C   25315.19937582  .00010081  00000+0  70199-3 0  9996",
    "TLE_LINE2": "2 65793  97.6004 176.2052 0002596  85.2767 274.8756 15.05641344  7142",
    "COMMENT": "Grouped by shell and plane from TLE"
  },
  {
    "OBJECT_NAME": "STARLINK-35378",
    "OBJECT_ID": "25218D",
    "EPOCH": "2025-11-11T04:11:11.247936",
    "MEAN_MOTION": 15.05647493,
    "ECCENTRICITY": 0.0002637,
    "INCLINATION": 97.6037,
    "RA_OF_ASC_NODE": 176.085,
    "ARG_OF_PERICENTER": 77.7101,
    "MEAN_ANOMALY": 282.4421,
    "EPHEMERIS_TYPE": 0,
    "CLASSIFICATION_TYPE": "U",
    "NORAD_CAT_ID": 65794,
    "ELEMENT_SET_NO": 999,
    "REV_AT_EPOCH": 713,
    "BSTAR": 0.0,
    "MEAN_MOTION_DOT": -1.59e-05,
    "MEAN_MOTION_DDOT": 0.0,
    "TLE_LINE1": "1 65794U 25218D   25315.17443574 -.00001590  00000+0 -10602-3 0  9998",
    "TLE_LINE2": "2 65794  97.6037 176.0850 0002637  77.7101 282.4421 15.05647493  7131",
    "COMMENT": "Grouped by shell and plane from TLE"
  },
  {
    "OBJECT_NAME": "STARLINK-35406",
    "OBJECT_ID": "25218E",
    "EPOCH": "2025-11-11T08:00:03.000384",
    "MEAN_MOTION": 15.05681422,
    "ECCENTRICITY": 0.000164,
    "INCLINATION": 97.604,
    "RA_OF_ASC_NODE": 176.2632,
    "ARG_OF_PERICENTER": 97.9647,
    "MEAN_ANOMALY": 87.9746,
    "EPHEMERIS_TYPE": 0,
    "CLASSIFICATION_TYPE": "U",
    "NORAD_CAT_ID": 65795,
    "ELEMENT_SET_NO": 999,
    "REV_AT_EPOCH": 590,
    "BSTAR": 0.0,
    "MEAN_MOTION_DOT": -0.00021102,
    "MEAN_MOTION_DDOT": 0.0,
    "TLE_LINE1": "1 65795U 25218E   25315.33336806 -.00021102  00000+0 -14613-2 0  9992",
    "TLE_LINE2": "2 65795  97.6040 176.2632 0001640  97.9647  87.9746 15.05681422  5909",
    "COMMENT": "Grouped by shell and plane from TLE"
  },
  {
    "OBJECT_NAME": "STARLINK-35390",
    "OBJECT_ID": "25218F",
    "EPOCH": "2025-11-11T04:59:03.322176",
    "MEAN_MOTION": 15.0565954,
    "ECCENTRICITY": 0.0003437,
    "INCLINATION": 97.6019,
    "RA_OF_ASC_NODE": 176.1967,
    "ARG_OF_PERICENTER": 77.0937,
    "MEAN_ANOMALY": 283.0673,
    "EPHEMERIS_TYPE": 0,
    "CLASSIFICATION_TYPE": "U",
    "NORAD_CAT_ID": 65796,
    "ELEMENT_SET_NO": 999,
    "REV_AT_EPOCH": 714,
    "BSTAR": 0.0006453499999999999,
    "MEAN_MOTION_DOT": 9.266e-05,
    "MEAN_MOTION_DDOT": 0.0,
    "TLE_LINE1": "1 65796U 25218F   25315.20767734  .00009266  00000+0  64535-3 0  9991",
    "TLE_LINE2": "2 65796  97.6019 176.1967 0003437  77.0937 283.0673 15.05659540  7145",
    "COMMENT": "Grouped by shell and plane from TLE"
  },
  {
    "OBJECT_NAME": "STARLINK-35412",
    "OBJECT_ID": "25218G",
    "EPOCH": "2025-11-11T04:35:08.032416",
    "MEAN_MOTION": 15.05643652,
    "ECCENTRICITY": 0.0001514,
    "INCLINATION": 97.6021,
    "RA_OF_ASC_NODE": 176.2186,
    "ARG_OF_PERICENTER": 72.0241,
    "MEAN_ANOMALY": 288.115,
    "EPHEMERIS_TYPE": 0,
    "CLASSIFICATION_TYPE": "U",
    "NORAD_CAT_ID": 65797,
    "ELEMENT_SET_NO": 999,
    "REV_AT_EPOCH": 714,
    "BSTAR": 0.00073668,
    "MEAN_MOTION_DOT": 0.00010583,
    "MEAN_MOTION_DDOT": 0.0,
    "TLE_LINE1": "1 65797U 25218G   25315.19106519  .00010583  00000+0  73668-3 0  9999",
    "TLE_LINE2": "2 65797  97.6021 176.2186 0001514  72.0241 288.1150 15.05643652  7143",
    "COMMENT": "Grouped by shell and plane from TLE"
  },
  {
    "OBJECT_NAME": "STARLINK-35414",
    "OBJECT_ID": "25218H",
    "EPOCH": "2025-11-11T03:47:16.388448",
    "MEAN_MOTION": 15.05658351,
    "ECCENTRICITY": 0.0002581,
    "INCLINATION": 97.603,
    "RA_OF_ASC_NODE": 176.1078,
    "ARG_OF_PERICENTER": 95.1336,
    "MEAN_ANOMALY": 265.0185,
    "EPHEMERIS_TYPE": 0,
    "CLASSIFICATION_TYPE": "U",
    "NORAD_CAT_ID": 65798,
    "ELEMENT_SET_NO": 999,
    "REV_AT_EPOCH": 713,
    "BSTAR": 0.00022017,
    "MEAN_MOTION_DOT": 3.118e-05,
    "MEAN_MOTION_DDOT": 0.0,
    "TLE_LINE1": "1 65798U 25218H   25315.15782857  .00003118  00000+0  22017-3 0  9999",
    "TLE_LINE2": "2 65798  97.6030 176.1078 0002581  95.1336 265.0185 15.05658351  7132",
    "COMMENT": "Grouped by shell and plane from TLE"
  },
  {
    "OBJECT_NAME": "STARLINK-35357",
    "OBJECT_ID": "25218J",
    "EPOCH": "2025-11-11T03:55:14.716992",
    "MEAN_MOTION": 15.05657509,
    "ECCENTRICITY": 0.000168,
    "INCLINATION": 97.6034,
    "RA_OF_ASC_NODE": 176.1009,
    "ARG_OF_PERICENTER": 91.9453,
    "MEAN_ANOMALY": 268.1966,
    "EPHEMERIS_TYPE": 0,
    "CLASSIFICATION_TYPE": "U",
    "NORAD_CAT_ID": 65799,
    "ELEMENT_SET_NO": 999,
    "REV_AT_EPOCH": 713,
    "BSTAR": 0.0006899499999999999,
    "MEAN_MOTION_DOT": 9.91e-05,
    "MEAN_MOTION_DDOT": 0.0,
    "TLE_LINE1": "1 65799U 25218J   25315.16336478  .00009910  00000+0  68995-3 0  9996",
    "TLE_LINE2": "2 65799  97.6034 176.1009 0001680  91.9453 268.1966 15.05657509  7139",
    "COMMENT": "Grouped by shell and plane from TLE"
  },
  {
    "OBJECT_NAME": "STARLINK-35300",
    "OBJECT_ID": "25218K",
    "EPOCH": "2025-11-11T04:19:10.295328",
    "MEAN_MOTION": 15.05660316,
    "ECCENTRICITY": 0.0002836,
    "INCLINATION": 97.5978,
    "RA_OF_ASC_NODE": 176.0816,
    "ARG_OF_PERICENTER": 84.3305,
    "MEAN_ANOMALY": 275.8245,
    "EPHEMERIS_TYPE": 0,
    "CLASSIFICATION_TYPE": "U",
    "NORAD_CAT_ID": 65800,
    "ELEMENT_SET_NO": 999,
    "REV_AT_EPOCH": 713,
    "BSTAR": 0.00075964,
    "MEAN_MOTION_DOT": 0.00010921,
    "MEAN_MOTION_DDOT": 0.0,
    "TLE_LINE1": "1 65800U 25218K   25315.17998027  .00010921  00000+0  75964-3 0  9992",
    "TLE_LINE2": "2 65800  97.5978 176.0816 0002836  84.3305 275.8245 15.05660316  7134",
    "COMMENT": "Grouped by shell and plane from TLE"
  }
]